{"type": "FeatureCollection", "features": [{"type": "Feature", "properties": {"basin": "TEXAS", "n": 58, "cx": -95.0274, "cy": 31.9196}, "geometry": {"type": "Polygon", "coordinates": [[[-98.425, 28.7083], [-95.5042, 33.0083], [-94.9308, 33.3447], [-92.54, 34.4786], [-92.5339, 34.4756], [-92.4111, 34.1458], [-93.3, 32.0833], [-93.8861, 31.5536], [-98.425, 28.7083]]]}}, {"type": "Feature", "properties": {"basin": "CENTRAL APPALACHIAN", "n": 1665, "cx": -82.1146, "cy": 37.638}, "geometry": {"type": "Polygon", "coordinates": [[[-84.3388, 36.0567], [-84.9814, 36.4186], [-84.7631, 36.8683], [-84.2092, 37.4119], [-84.0872, 37.5208], [-83.1019, 38.39], [-82.8689, 38.4775], [-81.3578, 38.9847], [-79.6222, 39.05], [-79.35, 39.0208], [-79.3528, 39.0042], [-79.9978, 37.4925], [-80.325, 37.3047], [-81.2292, 36.9675], [-83.6197, 36.1872], [-84.3388, 36.0567]]]}}, {"type": "Feature", "properties": {"basin": "NORTHERN APPALACHIAN", "n": 1688, "cx": -79.3719, "cy": 40.1291}, "geometry": {"type": "Polygon", "coordinates": [[[-81.3858, 38.0097], [-82.4333, 38.075], [-82.7542, 38.6025], [-82.8553, 38.9692], [-81.8883, 40.6711], [-80.7167, 41.6833], [-76.9769, 41.6694], [-76.5986, 41.6675], [-74.6, 40.7], [-81.3858, 38.0097]]]}}, {"type": "Feature", "properties": {"basin": "SOUTHERN APPALACHIAN", "n": 1000, "cx": -86.7114, "cy": 35.0259}, "geometry": {"type": "Polygon", "coordinates": [[[-87.0619, 33.08], [-87.4386, 33.2331], [-87.9894, 33.6911], [-87.2092, 37.3278], [-85.3719, 35.6631], [-85.2181, 35.4783], [-85.4214, 34.6014], [-85.4406, 34.5658], [-86.6486, 33.3919], [-87.0619, 33.08]]]}}, {"type": "Feature", "properties": {"basin": "NORTHERN ALASKA", "n": 52, "cx": -153.6946, "cy": 69.103}, "geometry": {"type": "Polygon", "coordinates": [[[-150.5769, 68.5706], [-163.8389, 69.0222], [-149.1083, 69.6333], [-146.8767, 69.6633], [-150.2367, 68.6264], [-150.5769, 68.5706]]]}}, {"type": "Feature", "properties": {"basin": "EASTERN", "n": 373, "cx": -87.3432, "cy": 38.6132}, "geometry": {"type": "Polygon", "coordinates": [[[-87.5497, 37.0872], [-88.7131, 37.1783], [-89.5533, 38.0164], [-90.375, 40.2917], [-90.2292, 41.0417], [-87.5128, 39.9061], [-82.4436, 37.5458], [-87.5497, 37.0872]]]}}, {"type": "Feature", "properties": {"basin": "POWDER RIVER", "n": 167, "cx": -106.4275, "cy": 45.1097}, "geometry": {"type": "Polygon", "coordinates": [[[-105.2833, 43.6667], [-106.1514, 44.1428], [-108.3083, 46.2806], [-106.7239, 45.9792], [-105.6533, 45.3858], [-105.4175, 45.2303], [-105.2831, 43.8194], [-105.2797, 43.7817], [-105.2833, 43.6667]]]}}, {"type": "Feature", "properties": {"basin": "GREEN RIVER", "n": 150, "cx": -107.4222, "cy": 41.0738}, "geometry": {"type": "Polygon", "coordinates": [[[-107.9772, 40.2603], [-108.6806, 41.6611], [-106.0428, 41.6475], [-106.9917, 40.3083], [-107.9772, 40.2603]]]}}, {"type": "Feature", "properties": {"basin": "DENVER", "n": 19, "cx": -104.8666, "cy": 39.7416}, "geometry": {"type": "Polygon", "coordinates": [[[-104.5944, 38.8033], [-106.1514, 40.7144], [-106.1583, 40.7236], [-106.1097, 40.7278], [-104.0936, 39.8325], [-103.9572, 39.3689], [-104.5944, 38.8033]]]}}, {"type": "Feature", "properties": {"basin": "FORT UNION", "n": 64, "cx": -103.5458, "cy": 47.5315}, "geometry": {"type": "Polygon", "coordinates": [[[-103.0292, 46.1281], [-103.0475, 46.1347], [-104.9711, 47.0356], [-105.4422, 47.4689], [-105.4914, 47.5169], [-105.2783, 48.55], [-104.6014, 48.5761], [-103.0656, 48.3419], [-101.2861, 48.0653], [-101.8061, 47.2883], [-103.0292, 46.1281]]]}}, {"type": "Feature", "properties": {"basin": "UINTA", "n": 91, "cx": -109.2578, "cy": 39.4346}, "geometry": {"type": "Polygon", "coordinates": [[[-111.2697, 38.8067], [-111.4272, 38.9278], [-111.1239, 39.5792], [-108.76, 40.2067], [-107.8028, 40.2586], [-107.7936, 40.2572], [-107.4, 38.9431], [-107.4106, 38.9383], [-111.2697, 38.8067]]]}}, {"type": "Feature", "properties": {"basin": "MISSISSIPPI", "n": 20, "cx": -88.818, "cy": 33.505}, "geometry": {"type": "Polygon", "coordinates": [[[-87.9831, 31.9433], [-88.2119, 32.0503], [-89.2156, 32.7753], [-89.75, 35.6583], [-89.5372, 35.6322], [-87.6081, 32.0647], [-87.9831, 31.9433]]]}}, {"type": "Feature", "properties": {"basin": "SAN JUAN RIVER", "n": 62, "cx": -107.8141, "cy": 36.0444}, "geometry": {"type": "Polygon", "coordinates": [[[-107.2292, 34.3653], [-108.6392, 34.6036], [-108.6389, 34.6208], [-108.4361, 37.3944], [-108.3181, 38.1444], [-107.2333, 37.1667], [-106.8742, 36.735], [-107.2292, 34.3653]]]}}, {"type": "Feature", "properties": {"basin": "CENTRAL ALASKA", "n": 27, "cx": -148.7471, "cy": 62.5085}, "geometry": {"type": "Polygon", "coordinates": [[[-151.5139, 59.9642], [-148.9481, 63.9025], [-148.9431, 63.9042], [-145.7806, 63.6569], [-151.5139, 59.9642]]]}}, {"type": "Feature", "properties": {"basin": "WIND RIVER", "n": 38, "cx": -108.3273, "cy": 42.739}, "geometry": {"type": "Polygon", "coordinates": [[[-107.5488, 41.3735], [-109.0406, 43.4647], [-108.7872, 43.5022], [-108.5661, 43.4711], [-108.1622, 42.9128], [-107.5488, 41.3735]]]}}, {"type": "Feature", "properties": {"basin": "PENNSYLVANIA ANTHRACITE", "n": 40, "cx": -77.3118, "cy": 40.8071}, "geometry": {"type": "Polygon", "coordinates": [[[-76.78, 40.4289], [-79.7625, 40.4292], [-76.2056, 41.4714], [-75.8453, 40.9958], [-75.8211, 40.855], [-76.76, 40.4356], [-76.78, 40.4289]]]}}, {"type": "Feature", "properties": {"basin": "RATON MESA", "n": 5, "cx": -104.6179, "cy": 37.2053}, "geometry": {"type": "Polygon", "coordinates": [[[-104.4778, 37.0539], [-104.6986, 37.1911], [-104.6772, 37.3708], [-104.4778, 37.0539]]]}}, {"type": "Feature", "properties": {"basin": "NORTHERN", "n": 6, "cx": -84.1871, "cy": 42.9839}, "geometry": {"type": "Polygon", "coordinates": [[[-84.4833, 42.6267], [-84.125, 43.25], [-83.8917, 43.375], [-83.875, 43.375], [-84.2833, 42.6667], [-84.4833, 42.6267]]]}}, {"type": "Feature", "properties": {"basin": "COOK INLET-SUSITNA", "n": 20, "cx": -151.6384, "cy": 61.228}, "geometry": {"type": "Polygon", "coordinates": [[[-151.6181, 61.1758], [-151.7383, 61.2803], [-151.725, 61.2931], [-151.5333, 61.2], [-151.6181, 61.1758]]]}}, {"type": "Feature", "properties": {"basin": "RHODE ISLAND META-ANTHRACITE", "n": 5, "cx": -71.2458, "cy": 41.8026}, "geometry": {"type": "Polygon", "coordinates": [[[-71.28, 41.6733], [-71.2647, 42.0214], [-71.1928, 41.7131], [-71.28, 41.6733]]]}}, {"type": "Feature", "properties": {"basin": "ATLANTIC COAST", "n": 3, "cx": -74.7657, "cy": 39.3057}, "geometry": {"type": "Polygon", "coordinates": [[[-77.7164, 37.5936], [-76.5389, 39.0533], [-70.0417, 41.2703], [-77.7164, 37.5936]]]}}, {"type": "Feature", "properties": {"basin": "TERTIARY LAKE BEDS", "n": 5, "cx": -113.0279, "cy": 44.824}, "geometry": {"type": "Polygon", "coordinates": [[[-113.0192, 44.7919], [-113.0614, 44.8472], [-113.0167, 44.8367], [-113.0031, 44.8306], [-113.0192, 44.7919]]]}}, {"type": "Feature", "properties": {"basin": "WESTERN", "n": 14, "cx": -94.4977, "cy": 35.8178}, "geometry": {"type": "Polygon", "coordinates": [[[-95.0542, 34.9847], [-95.1014, 34.9861], [-95.5694, 35.0458], [-95.6022, 35.0681], [-94.6506, 37.3578], [-93.2181, 35.1306], [-95.0542, 34.9847]]]}}]}